STARLINK-35597          
1 66493U 25263J   25335.25002315 -.00007383  00000+0 -44951-4 0  9991
2 66493  42.9994 193.2367 0002200 269.4069 244.1580 15.75055624  3780
STARLINK-35689          
1 66494U 25263K   25335.25002315 -.00005407  00000+0 -32084-4 0  9991
2 66494  42.9994 193.2518 0002170 262.9100 244.9068 15.75054652  3788
STARLINK-35832          
1 66495U 25263L   25335.25002315 -.00052017  00000+0 -33713-3 0  9990
2 66495  42.9993 193.2318 0001714 273.0660 242.4152 15.75070162  3784
STARLINK-35909          
1 66496U 25263M   25335.25002315 -.00033970  00000+0 -21837-3 0  9992
2 66496  42.9993 193.2272 0001769 285.9275 231.4174 15.75095667  3787
STARLINK-35899          
1 66497U 25263N   25335.25002315 -.00066476  00000+0 -43219-3 0  9998
2 66497  42.9992 193.2214 0002362 271.4190 247.8943 15.75080878  3782
STARLINK-35907          
1 66498U 25263P   25335.25002315  .00024636  00000+0  16297-3 0  9995
2 66498  42.9992 193.2172 0001962 267.3661 253.8635 15.75044529  3786
STARLINK-35816          
1 66499U 25263Q   25335.25002315  .00006720  00000+0  46799-4 0  9991
2 66499  42.9994 193.2076 0001617 270.5884 254.4738 15.75050746  3781
STARLINK-35894          
1 66500U 25263R   25335.25002315 -.00077133  00000+0 -50247-3 0  9994
2 66500  42.9993 193.2127 0002470 266.8343 256.3141 15.75087237  3780
STARLINK-35897          
1 66501U 25263S   25335.25002315 -.00002707  00000+0 -14506-4 0  9999
2 66501  42.9991 193.2025 0001600 274.5211 252.4582 15.75054994  3780
STARLINK-35922          
1 66502U 25263T   25335.25002315 -.00047350  00000+0 -30632-3 0  9990
2 66502  42.9991 193.1877 0002615 272.5638 260.1704 15.75074651  3787
STARLINK-35917          
1 66503U 25263U   25335.25002315 -.00055649  00000+0 -36092-3 0  9997
2 66503  42.9991 193.1781 0001646 272.9993 263.5677 15.75078272  3782
STARLINK-35916          
1 66504U 25263V   25335.25002315 -.02522634  00000+0 -29001-1 0  9993
2 66504  42.9991 193.3826 0001370 274.0068 180.3699 15.64724883  3789
STARLINK-34766          
1 66505U 25263W   25335.25002315 -.00035936  00000+0 -23147-3 0  9993
2 66505  42.9990 193.1973 0002067 270.0832 258.8237 15.75072517  3780
STARLINK-34765          
1 66506U 25263X   25335.25002315 -.00015871  00000+0 -10032-3 0  9999
2 66506  42.9991 193.1926 0001915 268.5041 262.3108 15.75055908  3787
STARLINK-34767          
1 66507U 25263Y   25335.25002315  .00033499  00000+0  22064-3 0  9992
2 66507  42.9992 193.1823 0001699 281.9833 252.7175 15.75005239  3781
STARLINK-35608          
1 66508U 25263Z   25335.25002315 -.00000321  00000+0  10226-5 0  9991
2 66508  42.9989 193.1683 0002030 272.0343 268.3750 15.75048804  3786
STARLINK-35598          
1 66509U 25263AA  25335.25002315 -.00010211  00000+0 -63439-4 0  9995
2 66509  42.9989 193.1479 0001380 269.6116 278.4803 15.75041890  3786
STARLINK-35600          
1 66510U 25263AB  25335.25002315 -.00003990  00000+0 -22859-4 0  9994
2 66510  42.9990 193.1624 0002295 272.3370 269.9911 15.75047905  3789
STARLINK-35444          
1 66511U 25263AC  25335.25002315 -.00019747  00000+0 -12572-3 0  9992
2 66511  42.9989 193.1531 0001822 273.9572 272.2198 15.75041934  3781
STARLINK-35366          
1 66512U 25263AD  25335.25002315  .00039720  00000+0  26065-3 0  9996
2 66512  42.9990 193.1432 0001796 257.0991 292.9123 15.75021681  3786
STARLINK-35692          
1 66513U 25263AE  25335.25002315  .00025816  00000+0  17070-3 0  9994
2 66513  42.9989 193.1582 0001697 269.4557 274.7971 15.75032178  3788
SENTINEL-6B             
1 66514U 25264A   25335.26912445  .00000014  00000+0  30734-3 0  9996
2 66514  66.0387 186.3929 0011525 268.9655  91.0043 12.85877220  1816
STARLINK-35924          
1 66516U 25265A   25335.25002315 -.01381403  00000+0 -92526-2 0  9997
2 66516  42.9997 122.4886 0001496 267.8187 296.8064 15.77043451  3124
STARLINK-35937          
1 66517U 25265B   25335.25002315 -.01367031  00000+0 -91679-2 0  9997
2 66517  42.9997 122.4841 0001633 270.6899 295.9723 15.76985268  3145
STARLINK-35962          
1 66518U 25265C   25335.25002315 -.01373966  00000+0 -92264-2 0  9993
2 66518  42.9996 122.4790 0001436 271.6792 296.9492 15.76972184  3149
STARLINK-35931          
1 66519U 25265D   25335.25002315 -.01282170  00000+0 -85763-2 0  9996
2 66519  42.9996 122.4734 0001646 266.6608 304.0345 15.76875463  3141
STARLINK-35952          
1 66520U 25265E   25335.25002315 -.01320104  00000+0 -88765-2 0  9993
2 66520  42.9997 122.4682 0001496 269.9917 302.7596 15.76834861  3148
STARLINK-35915          
1 66521U 25265F   25335.25002315 -.01316861  00000+0 -88551-2 0  9992
2 66521  42.9998 122.4633 0001469 270.9035 303.7842 15.76827851  3145
STARLINK-35946          
1 66522U 25265G   25335.25002315 -.01432723  00000+0 -97470-2 0  9999
2 66522  42.9997 122.4585 0001456 270.7679 305.9970 15.76800567  3140
STARLINK-35969          
1 66523U 25265H   25335.25002315 -.01447141  00000+0 -98820-2 0  9990
2 66523  42.9997 122.4532 0001414 270.1445 308.6605 15.76747038  3140
STARLINK-35687          
1 66524U 25265J   25335.25002315 -.01481664  00000+0 -10173-1 0  9993
2 66524  42.9996 122.4476 0001512 269.5356 311.3174 15.76694287  3148
STARLINK-35975          
1 66525U 25265K   25335.25002315 -.01444155  00000+0 -99011-2 0  9997
2 66525  42.9995 122.4431 0001458 264.0785 318.7636 15.76651347  3148
STARLINK-35932          
1 66526U 25265L   25335.25002315 -.01462510  00000+0 -10076-1 0  9996
2 66526  42.9998 122.4381 0001255 269.4258 315.4556 15.76582344  3038
STARLINK-35935          
1 66527U 25265M   25335.25002315 -.01501337  00000+0 -10405-1 0  9994
2 66527  42.9998 122.4331 0001542 265.4103 321.5057 15.76526074  3142
STARLINK-35928          
1 66528U 25265N   25335.25002315 -.01480481  00000+0 -10276-1 0  9997
2 66528  42.9998 122.4277 0001466 269.6813 319.2600 15.76450448  3140
STARLINK-35933          
1 66529U 25265P   25335.25002315 -.01446909  00000+0 -10055-1 0  9990
2 66529  42.9998 122.4227 0001430 276.5032 314.4804 15.76354381  3149
STARLINK-35961          
1 66530U 25265Q   25335.25002315 -.01429459  00000+0 -99338-2 0  9995
2 66530  42.9997 122.4178 0001392 270.1101 322.8298 15.76320110  3142
STARLINK-35960          
1 66531U 25265R   25335.25002315 -.01402526  00000+0 -97445-2 0  9999
2 66531  42.9998 122.4125 0001314 251.4958 343.4154 15.76271120  3148
STARLINK-35914          
1 66532U 25265S   25335.25002315 -.01436438  00000+0 -10029-1 0  9991
2 66532  42.9997 122.4079 0001437 264.1208 332.7845 15.76229553  3142
STARLINK-35707          
1 66533U 25265T   25335.25002315 -.01276042  00000+0 -88405-2 0  9999
2 66533  42.9997 122.4027 0001444 268.2566 330.6828 15.76079757  3143
STARLINK-35976          
1 66534U 25265U   25335.25002315 -.01148781  00000+0 -80573-2 0  9996
2 66534  43.0000 122.3977 0001567 273.9899 326.9754 15.75953357  3144
STARLINK-35514          
1 66535U 25265V   25335.25002315 -.01097839  00000+0 -76777-2 0  9995
2 66535  43.0000 122.3928 0001499 273.4288 329.4965 15.75898873  3145
STARLINK-35640          
1 66536U 25265W   25335.25002315 -.01046080  00000+0 -72929-2 0  9993
2 66536  42.9998 122.3880 0001339 275.3627 329.5119 15.75849687  3127
STARLINK-35582          
1 66537U 25265X   25335.25002315 -.00925064  00000+0 -65088-2 0  9999
2 66537  43.0001 122.3827 0001345 274.6212 332.2528 15.75741605  3143
STARLINK-35577          
1 66538U 25265Y   25335.25002315 -.00705880  00000+0 -48819-2 0  9995
2 66538  43.0001 122.3773 0001309 250.6006 358.3416 15.75533080  3140
STARLINK-35697          
1 66539U 25265Z   25335.25002315 -.00659923  00000+0 -45429-2 0  9996
2 66539  43.0002 122.3721 0001740 267.7073 343.1518 15.75510839  3149
STARLINK-35818          
1 66540U 25265AA  25335.25002315 -.00612543  00000+0 -42041-2 0  9992
2 66540  42.9998 122.3677 0001669 286.8529 325.9585 15.75452250  3145
STARLINK-35796          
1 66541U 25265AB  25335.25002315 -.00574573  00000+0 -39304-2 0  9991
2 66541  43.0000 122.3627 0001500 281.0266 333.7177 15.75427182  3146
STARLINK-35833          
1 66542U 25265AC  25335.25002315 -.00480825  00000+0 -32621-2 0  9993
2 66542  42.9999 122.3579 0001576 278.9715 337.7286 15.75361271  3146
STARLINK-35315          
1 66543U 25265AD  25335.25002315 -.00418858  00000+0 -28297-2 0  9995
2 66543  43.0002 122.3527 0001328 261.5270 357.1216 15.75291383  3039
STARLINK-35728          
1 66544U 25265AE  25335.25002315 -.00420731  00000+0 -28440-2 0  9999
2 66544  42.9999 122.3479 0001430 260.9600 359.6160 15.75282694  3145
SHIJIAN-30A             
1 66545U 25266A   25335.28250419  .00014546  00000+0  77673-3 0  9998
2 66545  51.7989  26.5281 0012699 315.2827  44.7124 15.15272059  1848
SHIJIAN-30B             
1 66546U 25266B   25335.28357516  .00016826  00000+0  89485-3 0  9992
2 66546  51.7972  26.5336 0010374 318.1455  41.8728 15.15324438  1846
SHIJIAN-30C             
1 66547U 25266C   25335.28438702  .00014617  00000+0  77857-3 0  9996
2 66547  51.7984  26.5392 0011311 310.3992  49.5997 15.15370115  1840
CZ-2C R/B               
1 66548U 25266D   25335.23624816  .00014404  00000+0  45237-3 0  9996
2 66548  52.0548  26.0701 0084961 133.8725 226.9321 15.29784538  1859
SHIJIAN-28              
1 66549U 25277A   25334.75466579  .00006315  00000+0  62085-3 0  9997
2 66549  14.4344 275.4056 7300519 179.5026 182.3580  2.28019775    48
CZ-7A R/B               
1 66550U 25277B   25334.33432863  .00091857 -33208-6  39957-3 0  9993
2 66550  14.4324 275.7460 7237467 177.8910 189.2280  2.39605114    36
GLOBAL-33               
1 66554U 25267A   25335.12008424  .00013563  00000+0  44761-3 0  9999
2 66554  42.0186 124.0556 0005782 330.8403  29.2110 15.31207177  1623
ELECTRON KICK STAGE R/B 
1 66555U 25267B   25335.11556310  .00024156  00000+0  77043-3 0  9990
2 66555  42.0167 124.0236 0007545 330.6271  29.4142 15.31987855  1623
